start=new Date('2021-12-13T00:00:00.000Z').valueOf();
sats=[{"EPHEMERIS_TYPE":"0","INCLINATION":"53.0562","ARG_OF_PERICENTER":"76.4685","SITE":"AFETR","EPOCH":"2021-12-12T21:57:36.401760","TIME_SYSTEM":"UTC","APOAPSIS":"548.179","REF_FRAME":"TEME","OBJECT_ID":"2020-088BE","ECCENTRICITY":"0.00013480","LAUNCH_DATE":"2020-11-25","PERIAPSIS":"546.312","MEAN_MOTION_DOT":"0.00001276","COUNTRY_CODE":"US","SEMIMAJOR_AXIS":"6925.381","TLE_LINE1":"1 47174U 20088BE  21346.91500465  .00001276  00000-0  10460-3 0  9997","ELEMENT_SET_NO":"999","GP_ID":"191586549","TLE_LINE2":"2 47174  53.0562  49.8560 0001348  76.4685 283.6454 15.06389518 58551","CLASSIFICATION_TYPE":"U","OBJECT_NAME":"STARLINK-1891","MEAN_MOTION_DDOT":"0.0000000000000","OBJECT_TYPE":"PAYLOAD","MEAN_ANOMALY":"283.6454","MEAN_MOTION":"15.06389518","REV_AT_EPOCH":"5855","RA_OF_ASC_NODE":"49.8560","FILE":"3238376","MEAN_ELEMENT_THEORY":"SGP4","BSTAR":"0.00010460000000","PERIOD":"95.593","DECAY_DATE":null,"RCS_SIZE":"LARGE","NORAD_CAT_ID":"47174","CENTER_NAME":"EARTH"},{"TLE_LINE1":"1 47175U 20088BF  21346.84681201 -.00000779  00000-0 -33440-4 0  9991","ELEMENT_SET_NO":"999","SEMIMAJOR_AXIS":"6925.376","GP_ID":"191586801","TLE_LINE2":"2 47175  53.0564  30.1447 0001454  62.6932 297.4205 15.06391085 58820","CLASSIFICATION_TYPE":"U","OBJECT_NAME":"STARLINK-1895","MEAN_MOTION_DDOT":"0.0000000000000","OBJECT_TYPE":"PAYLOAD","MEAN_ANOMALY":"297.4205","MEAN_MOTION":"15.06391085","REV_AT_EPOCH":"5882","RA_OF_ASC_NODE":"30.1447","FILE":"3238376","BSTAR":"-0.00003344000000","MEAN_ELEMENT_THEORY":"SGP4","DECAY_DATE":null,"PERIOD":"95.593","RCS_SIZE":"LARGE","NORAD_CAT_ID":"47175","CENTER_NAME":"EARTH","EPHEMERIS_TYPE":"0","INCLINATION":"53.0564","SITE":"AFETR","ARG_OF_PERICENTER":"62.6932","EPOCH":"2021-12-12T20:19:24.557664","TIME_SYSTEM":"UTC","APOAPSIS":"548.248","REF_FRAME":"TEME","OBJECT_ID":"2020-088BF","ECCENTRICITY":"0.00014540","LAUNCH_DATE":"2020-11-25","PERIAPSIS":"546.234","MEAN_MOTION_DOT":"-0.00000779","COUNTRY_CODE":"US"},{"CENTER_NAME":"EARTH","NORAD_CAT_ID":"47177","DECAY_DATE":null,"PERIOD":"95.592","RCS_SIZE":"LARGE","MEAN_ELEMENT_THEORY":"SGP4","BSTAR":"-0.00000790380000","FILE":"3238376","RA_OF_ASC_NODE":"41.1186","REV_AT_EPOCH":"5865","MEAN_MOTION":"15.06399083","MEAN_ANOMALY":"297.6432","OBJECT_TYPE":"PAYLOAD","MEAN_MOTION_DDOT":"0.0000000000000","OBJECT_NAME":"STARLINK-1907","CLASSIFICATION_TYPE":"U","TLE_LINE2":"2 47177  53.0542  41.1186 0001471  62.4707 297.6432 15.06399083 58658","GP_ID":"191587047","SEMIMAJOR_AXIS":"6925.351","TLE_LINE1":"1 47177U 20088BH  21346.63209716 -.00000399  00000-0 -79038-5 0  9999","ELEMENT_SET_NO":"999","COUNTRY_CODE":"US","MEAN_MOTION_DOT":"-0.00000399","PERIAPSIS":"546.198","LAUNCH_DATE":"2020-11-25","ECCENTRICITY":"0.00014710","OBJECT_ID":"2020-088BH","REF_FRAME":"TEME","APOAPSIS":"548.235","TIME_SYSTEM":"UTC","EPOCH":"2021-12-12T15:10:13.194624","SITE":"AFETR","ARG_OF_PERICENTER":"62.4707","INCLINATION":"53.0542","EPHEMERIS_TYPE":"0"},{"INCLINATION":"53.0559","EPHEMERIS_TYPE":"0","SITE":"AFETR","ARG_OF_PERICENTER":"70.1345","EPOCH":"2021-12-12T21:04:30.906336","TIME_SYSTEM":"UTC","APOAPSIS":"548.268","OBJECT_ID":"2020-088BJ","REF_FRAME":"TEME","ECCENTRICITY":"0.00015100","LAUNCH_DATE":"2020-11-25","MEAN_MOTION_DOT":"0.00001126","PERIAPSIS":"546.177","COUNTRY_CODE":"US","GP_ID":"191587303","TLE_LINE1":"1 47178U 20088BJ  21346.87813549  .00001126  00000-0  94506-4 0  9994","ELEMENT_SET_NO":"999","SEMIMAJOR_AXIS":"6925.358","TLE_LINE2":"2 47178  53.0559  50.0044 0001510  70.1345 289.9806 15.06397078 58546","CLASSIFICATION_TYPE":"U","MEAN_MOTION_DDOT":"0.0000000000000","OBJECT_NAME":"STARLINK-1912","OBJECT_TYPE":"PAYLOAD","MEAN_ANOMALY":"289.9806","MEAN_MOTION":"15.06397078","REV_AT_EPOCH":"5854","FILE":"3238376","RA_OF_ASC_NODE":"50.0044","PERIOD":"95.592","DECAY_DATE":null,"RCS_SIZE":"LARGE","MEAN_ELEMENT_THEORY":"SGP4","BSTAR":"0.00009450600000","CENTER_NAME":"EARTH","NORAD_CAT_ID":"47178"},{"CLASSIFICATION_TYPE":"U","TLE_LINE2":"2 47179  53.0550  59.7658 0001209  79.3167 280.7958 15.06398226 58412","ELEMENT_SET_NO":"999","TLE_LINE1":"1 47179U 20088BK  21346.93250930  .00001028  00000-0  87908-4 0  9990","SEMIMAJOR_AXIS":"6925.354","GP_ID":"191586049","OBJECT_TYPE":"PAYLOAD","OBJECT_NAME":"STARLINK-1913","MEAN_MOTION_DDOT":"0.0000000000000","MEAN_ANOMALY":"280.7958","MEAN_MOTION":"15.06398226","RA_OF_ASC_NODE":"59.7658","FILE":"3238376","REV_AT_EPOCH":"5841","NORAD_CAT_ID":"47179","CENTER_NAME":"EARTH","BSTAR":"0.00008790800000","MEAN_ELEMENT_THEORY":"SGP4","DECAY_DATE":null,"PERIOD":"95.592","RCS_SIZE":"LARGE","SITE":"AFETR","ARG_OF_PERICENTER":"79.3167","EPHEMERIS_TYPE":"0","INCLINATION":"53.0550","TIME_SYSTEM":"UTC","EPOCH":"2021-12-12T22:22:48.803520","REF_FRAME":"TEME","OBJECT_ID":"2020-088BK","APOAPSIS":"548.056","ECCENTRICITY":"0.00012090","LAUNCH_DATE":"2020-11-25","PERIAPSIS":"546.382","MEAN_MOTION_DOT":"0.00001028","COUNTRY_CODE":"US"},{"OBJECT_TYPE":"PAYLOAD","MEAN_MOTION_DDOT":"0.0000000000000","OBJECT_NAME":"STARLINK-1927","TLE_LINE2":"2 47181  53.0572  30.1864 0001424  61.5542 298.5591 15.06392227 58820","CLASSIFICATION_TYPE":"U","ELEMENT_SET_NO":"999","TLE_LINE1":"1 47181U 20088BM  21346.83943903 -.00000703  00000-0 -28311-4 0  9995","SEMIMAJOR_AXIS":"6925.372","GP_ID":"191586301","NORAD_CAT_ID":"47181","CENTER_NAME":"EARTH","MEAN_ELEMENT_THEORY":"SGP4","BSTAR":"-0.00002831100000","DECAY_DATE":null,"RCS_SIZE":"LARGE","PERIOD":"95.593","RA_OF_ASC_NODE":"30.1864","FILE":"3238376","REV_AT_EPOCH":"5882","MEAN_MOTION":"15.06392227","MEAN_ANOMALY":"298.5591","REF_FRAME":"TEME","OBJECT_ID":"2020-088BM","APOAPSIS":"548.224","TIME_SYSTEM":"UTC","EPOCH":"2021-12-12T20:08:47.532192","SITE":"AFETR","ARG_OF_PERICENTER":"61.5542","EPHEMERIS_TYPE":"0","INCLINATION":"53.0572","COUNTRY_CODE":"US","PERIAPSIS":"546.251","MEAN_MOTION_DOT":"-0.00000703","LAUNCH_DATE":"2020-11-25","ECCENTRICITY":"0.00014240"},{"LAUNCH_DATE":"2021-01-20","ECCENTRICITY":"0.00026260","COUNTRY_CODE":"US","MEAN_MOTION_DOT":"-0.00002842","PERIAPSIS":"337.961","SITE":"AFETR","ARG_OF_PERICENTER":"47.5436","INCLINATION":"53.0480","EPHEMERIS_TYPE":"0","OBJECT_ID":"2021-005A","REF_FRAME":"TEME","APOAPSIS":"341.489","TIME_SYSTEM":"UTC","EPOCH":"2021-12-12T20:18:17.188128","MEAN_MOTION":"15.76726268","MEAN_ANOMALY":"312.5805","CENTER_NAME":"EARTH","NORAD_CAT_ID":"47349","DECAY_DATE":null,"PERIOD":"91.328","RCS_SIZE":"LARGE","MEAN_ELEMENT_THEORY":"SGP4","BSTAR":"-0.00001334700000","FILE":"3238376","RA_OF_ASC_NODE":"126.9992","REV_AT_EPOCH":"5035","TLE_LINE2":"2 47349  53.0480 126.9992 0002626  47.5436 312.5805 15.76726268 50359","CLASSIFICATION_TYPE":"U","GP_ID":"191586319","ELEMENT_SET_NO":"999","TLE_LINE1":"1 47349U 21005A   21346.84603227 -.00002842  00000-0 -13347-4 0  9993","SEMIMAJOR_AXIS":"6717.860","OBJECT_TYPE":"PAYLOAD","OBJECT_NAME":"STARLINK-1952","MEAN_MOTION_DDOT":"0.0000000000000"},{"OBJECT_NAME":"STARLINK-2011","MEAN_MOTION_DDOT":"0.0000000000000","OBJECT_TYPE":"PAYLOAD","GP_ID":"191587566","ELEMENT_SET_NO":"999","TLE_LINE1":"1 47350U 21005B   21346.94449174  .00000403  00000-0  45990-4 0  9993","SEMIMAJOR_AXIS":"6925.349","TLE_LINE2":"2 47350  53.0479 169.7391 0002336  85.1154 275.0102 15.06399918 49767","CLASSIFICATION_TYPE":"U","REV_AT_EPOCH":"4976","FILE":"3238376","RA_OF_ASC_NODE":"169.7391","RCS_SIZE":"LARGE","DECAY_DATE":null,"PERIOD":"95.592","MEAN_ELEMENT_THEORY":"SGP4","BSTAR":"0.00004599000000","CENTER_NAME":"EARTH","NORAD_CAT_ID":"47350","MEAN_ANOMALY":"275.0102","MEAN_MOTION":"15.06399918","EPOCH":"2021-12-12T22:40:04.086336","TIME_SYSTEM":"UTC","APOAPSIS":"548.832","OBJECT_ID":"2021-005B","REF_FRAME":"TEME","INCLINATION":"53.0479","EPHEMERIS_TYPE":"0","SITE":"AFETR","ARG_OF_PERICENTER":"85.1154","MEAN_MOTION_DOT":"0.00000403","PERIAPSIS":"545.596","COUNTRY_CODE":"US","ECCENTRICITY":"0.00023360","LAUNCH_DATE":"2021-01-20"},{"MEAN_MOTION":"15.06399632","MEAN_ANOMALY":"258.3969","BSTAR":"0.00006191400000","MEAN_ELEMENT_THEORY":"SGP4","DECAY_DATE":null,"RCS_SIZE":"LARGE","PERIOD":"95.592","NORAD_CAT_ID":"47351","CENTER_NAME":"EARTH","REV_AT_EPOCH":"5030","RA_OF_ASC_NODE":"130.1698","FILE":"3238376","TLE_LINE1":"1 47351U 21005C   21346.84129882  .00000641  00000-0  61914-4 0  9992","ELEMENT_SET_NO":"999","SEMIMAJOR_AXIS":"6925.350","GP_ID":"191587822","TLE_LINE2":"2 47351  53.0540 130.1698 0002087 101.7254 258.3969 15.06399632 50308","CLASSIFICATION_TYPE":"U","MEAN_MOTION_DDOT":"0.0000000000000","OBJECT_NAME":"STARLINK-2017","OBJECT_TYPE":"PAYLOAD","LAUNCH_DATE":"2021-01-20","ECCENTRICITY":"0.00020870","COUNTRY_CODE":"US","PERIAPSIS":"545.769","MEAN_MOTION_DOT":"0.00000641","EPHEMERIS_TYPE":"0","INCLINATION":"53.0540","ARG_OF_PERICENTER":"101.7254","SITE":"AFETR","APOAPSIS":"548.660","REF_FRAME":"TEME","OBJECT_ID":"2021-005C","EPOCH":"2021-12-12T20:11:28.218048","TIME_SYSTEM":"UTC"},{"RCS_SIZE":"LARGE","DECAY_DATE":null,"PERIOD":"95.592","BSTAR":"0.00003944100000","MEAN_ELEMENT_THEORY":"SGP4","CENTER_NAME":"EARTH","NORAD_CAT_ID":"47352","REV_AT_EPOCH":"4973","FILE":"3238376","RA_OF_ASC_NODE":"170.3923","MEAN_MOTION":"15.06401613","MEAN_ANOMALY":"273.1298","MEAN_MOTION_DDOT":"0.0000000000000","OBJECT_NAME":"STARLINK-2034","OBJECT_TYPE":"PAYLOAD","GP_ID":"191586568","TLE_LINE1":"1 47352U 21005D   21346.79335779  .00000306  00000-0  39441-4 0  9999","ELEMENT_SET_NO":"999","SEMIMAJOR_AXIS":"6925.344","CLASSIFICATION_TYPE":"U","TLE_LINE2":"2 47352  53.0540 170.3923 0002032  86.9923 273.1298 15.06401613 49731","COUNTRY_CODE":"US","MEAN_MOTION_DOT":"0.00000306","PERIAPSIS":"545.801","LAUNCH_DATE":"2021-01-20","ECCENTRICITY":"0.00020320","APOAPSIS":"548.616","OBJECT_ID":"2021-005D","REF_FRAME":"TEME","EPOCH":"2021-12-12T19:02:26.113056","TIME_SYSTEM":"UTC","INCLINATION":"53.0540","EPHEMERIS_TYPE":"0","SITE":"AFETR","ARG_OF_PERICENTER":"86.9923"}];
